[{"OBJECT_NAME":"STARLINK-1329","OBJECT_ID":"2020-025A","EPOCH":"2026-03-09T07:41:14.717472","MEAN_MOTION":15.56178822,"ECCENTRICITY":0.00013748,"INCLINATION":53.05,"RA_OF_ASC_NODE":83.1377,"ARG_OF_PERICENTER":343.8694,"MEAN_ANOMALY":16.2272,"EPHEMERIS_TYPE":0,"CLASSIFICATION_TYPE":"U","NORAD_CAT_ID":45531,"ELEMENT_SET_NO":999,"REV_AT_EPOCH":32539,"BSTAR":0.0017556532,"MEAN_MOTION_DOT":0.00126679,"MEAN_MOTION_DDOT":0},{"OBJECT_NAME":"OBJECT B","OBJECT_ID":"2024-016B","EPOCH":"2026-03-09T23:07:32.206944","MEAN_MOTION":15.56634272,"ECCENTRICITY":0.00048188,"INCLINATION":97.4479,"RA_OF_ASC_NODE":160.469,"ARG_OF_PERICENTER":75.9496,"MEAN_ANOMALY":284.2294,"EPHEMERIS_TYPE":0,"CLASSIFICATION_TYPE":"U","NORAD_CAT_ID":58821,"ELEMENT_SET_NO":999,"REV_AT_EPOCH":11866,"BSTAR":0.0010784899,"MEAN_MOTION_DOT":0.0007733,"MEAN_MOTION_DDOT":0}]
